[{"OBJECT_NAME":"STARLINK-35220","OBJECT_ID":"2025-211K","EPOCH":"2026-03-09T16:48:09.392544","MEAN_MOTION":15.05653544,"ECCENTRICITY":9.4e-5,"INCLINATION":97.6021,"RA_OF_ASC_NODE":114.0797,"ARG_OF_PERICENTER":113.0996,"MEAN_ANOMALY":247.033,"EPHEMERIS_TYPE":0,"CLASSIFICATION_TYPE":"U","NORAD_CAT_ID":65661,"ELEMENT_SET_NO":999,"REV_AT_EPOCH":2704,"BSTAR":0.00018175142,"MEAN_MOTION_DOT":2.563e-5,"MEAN_MOTION_DDOT":0},{"OBJECT_NAME":"CZ-6A DEB","OBJECT_ID":"2024-140FD","EPOCH":"2026-03-09T14:27:44.906112","MEAN_MOTION":14.99694865,"ECCENTRICITY":0.0039811,"INCLINATION":89.0027,"RA_OF_ASC_NODE":280.8171,"ARG_OF_PERICENTER":188.2594,"MEAN_ANOMALY":171.7991,"EPHEMERIS_TYPE":0,"CLASSIFICATION_TYPE":"U","NORAD_CAT_ID":60778,"ELEMENT_SET_NO":999,"REV_AT_EPOCH":8450,"BSTAR":0.0048584,"MEAN_MOTION_DOT":0.00061368,"MEAN_MOTION_DDOT":0}]
